AEROCUBE 12A            
1 43556U 18046C   19206.58634109  .00000231  00000-0  20791-4 0  9995
2 43556  51.6410 239.6667 0008301 199.0713 160.9957 15.28780436 57208
AEROCUBE 12B            
1 43557U 18046D   19206.53762760 -.00000366  00000-0 -24530-6 0  9994
2 43557  51.6415 240.0872 0008251 198.9563 161.1111 15.28648420 57147
UITMSAT-1               
1 43589U 98067PD  19206.32837397  .00009929  00000-0  11529-3 0  9999
2 43589  51.6351 157.9540 0004525 299.2923  60.7618 15.62456358 54478
MAYA-1                  
1 43590U 98067PE  19206.13115279  .00009849  00000-0  11435-3 0  9995
2 43590  51.6353 158.8911 0004635 298.7818  61.2711 15.62470918 54370
BHUTAN-1                
1 43591U 98067PF  19207.07982411  .00009383  00000-0  10891-3 0  9998
2 43591  51.6364 154.0009 0004818 303.1708  56.8823 15.62545824 54521
SIRIUSSAT-1             
1 43595U 98067PG  19206.82973343  .00008521  00000-0  10276-3 0  9998
2 43595  51.6354 156.8063 0002435 250.3972 109.6759 15.61691050 53642
SIRIUSSAT-2             
1 43596U 98067PH  19206.86387037  .00008436  00000-0  10241-3 0  9999
2 43596  51.6363 157.0723 0002949 250.9959 109.0715 15.61532455 53649
TANUSHA-3               
1 43597U 98067PJ  19207.46266021  .00010538  00000-0  11835-3 0  9992
2 43597  51.6346 152.0049 0002413 275.9758  84.0961 15.63246019 53765
SURFSAT                 
1 43614U 18070B   19206.75980499  .00001543  00000-0  41806-4 0  9999
2 43614  93.0234  18.9560 0016923 154.2891 205.9208 15.37637904 48105
CP7 (DAVE)              
1 43615U 18070C   19206.44208144  .00001554  00000-0  42236-4 0  9996
2 43615  93.0235  18.8252 0016972 154.8150 205.3935 15.37551889 48054
ELFIN-B                 
1 43616U 18070D   19206.76002890  .00002348  00000-0  62319-4 0  9998
2 43616  93.0204  18.8676 0017792 157.3523 202.8520 15.38216166 48110
ELFIN-A                 
1 43617U 18070E   19207.14313217  .00002422  00000-0  64208-4 0  9992
2 43617  93.0257  19.2697 0017139 152.6277 207.5884 15.38265004 48172
CUBEBEL-1 (BSUSAT-1)    
1 43666U 18083E   19207.19916067  .00000633  00000-0  34754-4 0  9992
2 43666  97.5178 231.4186 0016681  61.0119   5.1725 15.17631523 40973
DEBRISSAT-2             
1 43680U 98067PR  19206.46674043  .00015210  00000-0  16211-3 0  9996
2 43680  51.6357 156.6465 0002255 300.0392  60.0379 15.64189412 62345
CICERO 10               
1 43690U 18088A   19206.76499109  .00000589  00000-0  25610-4 0  9990
2 43690  85.0389 294.1017 0017380  74.8095 285.5066 15.19704705 38982
IRVINE01                
1 43693U 18088D   19206.71039996  .00001334  00000-0  57209-4 0  9990
2 43693  85.0364 293.6692 0020406  61.3789 298.9502 15.21486697 38999
PROXIMA I               
1 43694U 18088E   19206.73497821  .00000541  00000-0  22126-4 0  9997
2 43694  85.0334 293.4732 0021277  52.8800 307.4381 15.21426470 39003
PROXIMA II              
1 43696U 18088G   19206.73399696  .00000534  00000-0  21816-4 0  9997
2 43696  85.0335 293.4750 0021308  52.8330 307.4853 15.21431317 39009
FACSAT-1                
1 43721U 18096C   19207.43184079  .00000905  00000-0  37574-4 0  9990
2 43721  97.4578 277.2342 0017628 191.5336 168.5501 15.26358601 36493
CENTAURI-2              
1 43722U 18096D   19206.81694427  .00001107  00000-0  44984-4 0  9993
2 43722  97.4581 276.6786 0017726 194.4853 165.5879 15.26587127 36399
INNOSAT-2               
1 43738U 18096V   19207.48099491  .00001509  00000-0  56322-4 0  9999
2 43738  97.4584 278.0891 0023785 204.6943 155.3160 15.28760335 36552
SIRION PATHFINDER-2     
1 43759U 18099B   19207.26385584  .00000088  00000-0  13269-4 0  9996
2 43759  97.7431 278.7859 0014108 189.5802 170.5152 14.95138883 35036
CORVUS-BC 4             
1 43767U 18099K   19206.81527630  .00000468  00000-0  48481-4 0  9991
2 43767  97.7420 278.1000 0011467 192.6503 167.4431 14.94583853 34969
SPACEBEE-7              
1 43816U 18099BL  19206.75731438  .00000528  00000-0  52918-4 0  9999
2 43816  97.7442 278.3733 0013321 186.3427 173.7627 14.95429486 34519
SPACEBEE-5              
1 43817U 18099BM  19206.67041633  .00000805  00000-0  77499-4 0  9991
2 43817  97.7459 278.3678 0013377 187.3643 172.7384 14.95676618 34507
SPACEBEE-6              
1 43818U 18099BN  19206.68351500  .00000806  00000-0  77889-4 0  9994
2 43818  97.7447 278.3264 0013387 186.5300 173.5748 14.95510062 34657
SHIELDS 1               
1 43850U 18104B   19206.55279808  .00000041  00000-0  00000-0 0  9991
2 43850  85.0268  32.0874 0013993 186.0638 174.0442 15.21103270 33620
STF-1                   
1 43852U 18104D   19207.03013796  .00000041  00000-0  00000+0 0  9998
2 43852  85.0347  32.0343 0013997 198.5153 161.5692 15.20644954 33687
ZACUBE-2                
1 43907U 18111AH  19207.49058803  .00000301  00000-0  15154-4 0  9995
2 43907  97.2872 111.6863 0020625 214.3745 145.6159 15.24213733 32206
LUME 1                  
1 43908U 18111AJ  19206.69199878  .00000515  00000-0  23801-4 0  9990
2 43908  97.2871 110.9328 0020468 217.4908 142.4903 15.24378441 32080
AOBA VELOX-IV           
1 43940U 19003J   19207.50859752  .00000890  00000-0  39518-4 0  9990
2 43940  97.2734 264.2962 0023108 300.7155 166.1416 15.23885950 28843
CATSAT-2                
1 44029U 98067PV  19206.78147874  .00005075  00000-0  75994-4 0  9998
2 44029  51.6386 165.5318 0004381 292.7278  67.3250 15.56877897 27355
DELPHINI                
1 44030U 98067PW  19206.77264569  .00006432  00000-0  93877-4 0  9998
2 44030  51.6376 165.4592 0003892 292.5715  67.4865 15.57058033 27323
UNITE                   
1 44031U 98067PX  19206.83183487  .00004216  00000-0  66330-4 0  9997
2 44031  51.6381 165.8576 0002670 289.2405  70.8297 15.56001696 27327
TECHEDSAT 8             
1 44032U 98067PY  19206.49559607  .00015104  00000-0  18327-3 0  9991
2 44032  51.6371 164.3607 0002533 302.4141  57.6608 15.60832693 27298
CATSAT-1                
1 44033U 98067PZ  19207.35908220  .00005024  00000-0  75286-4 0  9995
2 44033  51.6385 162.6397 0004218 295.5153  64.5402 15.56883990 27355
NEPALISAT-1             
1 44329U 98067QE  19206.92857565  .00004211  00000-0  75422-4 0  9999
2 44329  51.6401 168.7578 0006709 219.0229 141.0277 15.52324732  6046
RAAVANA-1               
1 44330U 98067QF  19207.25138637  .00003950  00000-0  71317-4 0  9998
2 44330  51.6401 167.1635 0006675 218.7757 141.2755 15.52288883  6071
UGUISU                  
1 44331U 98067QG  19206.79895001  .00004136  00000-0  74132-4 0  9997
2 44331  51.6402 169.3923 0006720 219.9185 140.1311 15.52357857  6014
SPOOQY-1                
1 44332U 98067QH  19206.79803731  .00004167  00000-0  74548-4 0  9992
2 44332  51.6400 169.3854 0005463 221.6956 138.3618 15.52394289  5978
SPACEBEE-9              
1 44370U 19037F   19207.21085972 -.00000348  00000-0  00000+0 0  9996
2 44370  45.0117 139.1822 0014363  56.9970 303.3433 15.39248402  4110
SPACEBEE-8              
1 44371U 19037G   19207.20874446 -.00000349  00000-0  00000+0 0  9999
2 44371  45.0104 139.1624 0014845  54.9799 305.3623 15.39448689  4100
LUCKY-7                 
1 44406U 19038W   19207.14937824  .00000234  00000-0  17411-4 0  9993
2 44406  97.4911 168.6981 0025095 169.3746 190.8020 15.11812396  3119
JAISAT-1                
1 44419U 19038F   19206.87868467  .00000342  00000-0  23462-4 0  9995
2 44419  97.4911 168.4465 0021878 175.5318 184.6112 15.12253090  3087
SWIATOWID               
1 44426U 98067QL  19207.46045951  .00005844  00000-0  10359-3 0  9995
2 44426  51.6409 166.3116 0004188 173.1124 186.9924 15.51804391  3606
KRAKSAT                 
1 44427U 98067QM  19207.35566807  .00003097  00000-0  58733-4 0  9999
2 44427  51.6428 166.8317 0004314 165.3323 326.2879 15.51701099  3622
VCC A                   
1 44428U 98067QN  19207.39385446  .00003903  00000-0  71483-4 0  9995
2 44428  51.6412 166.6169 0003046 189.2746 170.8188 15.51908073  3632
VCC B                   
1 44429U 98067QP  19207.20029765  .00004526  00000-0  81559-4 0  9992
2 44429  51.6412 167.5743 0002967 178.1193 181.9809 15.51949729  3608
VCC C                   
1 44430U 98067QQ  19207.26506555  .00002930  00000-0  55593-4 0  9993
2 44430  51.6411 167.2560 0003050 188.7562 171.3375 15.51897577  2438
ENTRYSAT                
1 44431U 98067QR  19207.20112806  .00003964  00000-0  72563-4 0  9994
2 44431  51.6409 167.5792 0003242 187.7083 172.3857 15.51877327  3546
